COSMOS 2282             
1 23168U 94038A   26116.39558411  .00000042  00000+0  00000+0 0  9990
2 23168  13.8786 353.0864 0005496 118.3853  70.9335  1.00260518116487
SL-12 R/B(2)            
1 23171U 94038D   26114.65722764 -.00000063  00000+0  00000+0 0  9999
2 23171  14.2213 354.3358 0022898 146.8965  34.1071  0.99425117115481
OPTUS B3 PKM            
1 23229U 94055C   26113.93939499  .00000239  00000+0  90824-3 0  9998
2 23229  24.0787  34.3324 7332422  87.4966 346.3825  2.13720382243110
KIKU-6 (ETS-VI)         
1 23230U 94056A   26116.54617001 -.00000162  00000+0  00000+0 0  9992
2 23230  12.7000 244.8735 5046979 174.3364 238.0290  1.67089024193388
ARIANE 44L+ DEB         
1 23244U 92021N   26116.54494557 -.00000193  00000+0  00000+0 0  9990
2 23244   4.4423  43.0069 6899693  19.7439 259.7146  2.21572337257975
TITAN 4 CENTAUR R/B     
1 23247U 94054B   26115.79241050  .00000013  00000+0  00000+0 0  9995
2 23247  12.2453 354.7272 0115314 353.4558   6.3473  0.99584077 25004
ETS 6 DEB               
1 23248U 94056C   26115.41707859 -.00000046  00000+0  00000+0 0  9998
2 23248  11.8707 147.3293 5173412 348.6580 207.4828  1.70301740196809
COSMOS 2291             
1 23267U 94060A   26114.92323963 -.00000121  00000+0  00000+0 0  9993
2 23267  14.1694 350.0323 0005857 235.5065 309.3229  1.00279795115661
SL-12 R/B(2)            
1 23270U 94060D   26116.40669484 -.00000075  00000+0  00000+0 0  9991
2 23270  14.2740 350.4768 0006514 149.6681  33.2915  1.00092306115021
THAICOM 2               
1 23314U 94065B   26116.46787049  .00000087  00000+0  00000+0 0  9991
2 23314  11.3820  39.0104 0001892 240.8766 323.5682  0.99588946 45859
EXPRESS 1               
1 23319U 94067A   26115.85773927  .00000060  00000+0  00000+0 0  9991
2 23319  14.5052   2.4105 0005772 268.6039 279.5530  0.99826865115050
SL-12 R/B(2)            
1 23322U 94067D   26116.48652647 -.00000287  00000+0  00000+0 0  9992
2 23322  13.8956 345.2674 0006156 139.8057 227.2619  1.00221932115497
ELEKTRO (GOMS 1)        
1 23327U 94069A   26116.15282038 -.00000146  00000+0  00000+0 0  9990
2 23327  14.4963 349.6965 0008073 270.0209  86.4444  1.00288600115345
SL-12 R/B(2)            
1 23330U 94069D   26116.52009527 -.00000105  00000+0  00000+0 0  9990
2 23330  14.4952 349.7388 0020636 151.4029 156.1709  1.00096232115132
DFH 3-1                 
1 23415U 94080A   26116.52009506 -.00000231  00000+0  00000+0 0  9994
2 23415  13.7081 344.9458 0097172  21.1068 294.0194  1.00968654135140
LUCH                    
1 23426U 94082A   26114.61752300 -.00000253  00000+0  00000+0 0  9997
2 23426  14.7509 355.0176 0004214 218.7466 141.1861  1.00168140114725
SL-12 R/B(2)            
1 23429U 94082D   26116.45323850 -.00000100  00000+0  00000+0 0  9999
2 23429  14.5801 354.4883 0026774 137.8330  39.0014  1.00788266115379
