[{"OBJECT_NAME":"COSMOS 2282","OBJECT_ID":"1994-038A","EPOCH":"2026-04-26T09:29:38.467104","MEAN_MOTION":1.00260518,"ECCENTRICITY":0.0005496,"INCLINATION":13.8786,"RA_OF_ASC_NODE":353.0864,"ARG_OF_PERICENTER":118.3853,"MEAN_ANOMALY":70.9335,"EPHEMERIS_TYPE":0,"CLASSIFICATION_TYPE":"U","NORAD_CAT_ID":23168,"ELEMENT_SET_NO":999,"REV_AT_EPOCH":11648,"BSTAR":0,"MEAN_MOTION_DOT":4.2e-7,"MEAN_MOTION_DDOT":0},{"OBJECT_NAME":"SL-12 R/B(2)","OBJECT_ID":"1994-038D","EPOCH":"2026-04-24T15:46:24.468096","MEAN_MOTION":0.99425117,"ECCENTRICITY":0.00228981,"INCLINATION":14.2213,"RA_OF_ASC_NODE":354.3358,"ARG_OF_PERICENTER":146.8965,"MEAN_ANOMALY":34.1071,"EPHEMERIS_TYPE":0,"CLASSIFICATION_TYPE":"U","NORAD_CAT_ID":23171,"ELEMENT_SET_NO":999,"REV_AT_EPOCH":11548,"BSTAR":0,"MEAN_MOTION_DOT":-6.3e-7,"MEAN_MOTION_DDOT":0},{"OBJECT_NAME":"OPTUS B3 PKM","OBJECT_ID":"1994-055C","EPOCH":"2026-04-23T22:32:43.727136","MEAN_MOTION":2.13720382,"ECCENTRICITY":0.7332422,"INCLINATION":24.0787,"RA_OF_ASC_NODE":34.3324,"ARG_OF_PERICENTER":87.4966,"MEAN_ANOMALY":346.3825,"EPHEMERIS_TYPE":0,"CLASSIFICATION_TYPE":"U","NORAD_CAT_ID":23229,"ELEMENT_SET_NO":999,"REV_AT_EPOCH":24311,"BSTAR":0.00090824,"MEAN_MOTION_DOT":2.39e-6,"MEAN_MOTION_DDOT":0},{"OBJECT_NAME":"KIKU-6 (ETS-VI)","OBJECT_ID":"1994-056A","EPOCH":"2026-04-26T13:06:29.088864","MEAN_MOTION":1.67089024,"ECCENTRICITY":0.5046979,"INCLINATION":12.7,"RA_OF_ASC_NODE":244.8735,"ARG_OF_PERICENTER":174.3364,"MEAN_ANOMALY":238.029,"EPHEMERIS_TYPE":0,"CLASSIFICATION_TYPE":"U","NORAD_CAT_ID":23230,"ELEMENT_SET_NO":999,"REV_AT_EPOCH":19338,"BSTAR":0,"MEAN_MOTION_DOT":-1.62e-6,"MEAN_MOTION_DDOT":0},{"OBJECT_NAME":"ARIANE 44L+ DEB","OBJECT_ID":"1992-021N","EPOCH":"2026-04-26T13:04:43.297248","MEAN_MOTION":2.21572337,"ECCENTRICITY":0.6899693,"INCLINATION":4.4423,"RA_OF_ASC_NODE":43.0069,"ARG_OF_PERICENTER":19.7439,"MEAN_ANOMALY":259.7146,"EPHEMERIS_TYPE":0,"CLASSIFICATION_TYPE":"U","NORAD_CAT_ID":23244,"ELEMENT_SET_NO":999,"REV_AT_EPOCH":25797,"BSTAR":0,"MEAN_MOTION_DOT":-1.93e-6,"MEAN_MOTION_DDOT":0},{"OBJECT_NAME":"TITAN 4 CENTAUR R/B","OBJECT_ID":"1994-054B","EPOCH":"2026-04-25T19:01:04.267200","MEAN_MOTION":0.99584077,"ECCENTRICITY":0.0115314,"INCLINATION":12.2453,"RA_OF_ASC_NODE":354.7272,"ARG_OF_PERICENTER":353.4558,"MEAN_ANOMALY":6.3473,"EPHEMERIS_TYPE":0,"CLASSIFICATION_TYPE":"U","NORAD_CAT_ID":23247,"ELEMENT_SET_NO":999,"REV_AT_EPOCH":2500,"BSTAR":0,"MEAN_MOTION_DOT":1.3e-7,"MEAN_MOTION_DDOT":0},{"OBJECT_NAME":"ETS 6 DEB","OBJECT_ID":"1994-056C","EPOCH":"2026-04-25T10:00:35.590176","MEAN_MOTION":1.7030174,"ECCENTRICITY":0.5173412,"INCLINATION":11.8707,"RA_OF_ASC_NODE":147.3293,"ARG_OF_PERICENTER":348.658,"MEAN_ANOMALY":207.4828,"EPHEMERIS_TYPE":0,"CLASSIFICATION_TYPE":"U","NORAD_CAT_ID":23248,"ELEMENT_SET_NO":999,"REV_AT_EPOCH":19680,"BSTAR":0,"MEAN_MOTION_DOT":-4.6e-7,"MEAN_MOTION_DDOT":0},{"OBJECT_NAME":"COSMOS 2291","OBJECT_ID":"1994-060A","EPOCH":"2026-04-24T22:09:27.904032","MEAN_MOTION":1.00279795,"ECCENTRICITY":0.0005857,"INCLINATION":14.1694,"RA_OF_ASC_NODE":350.0323,"ARG_OF_PERICENTER":235.5065,"MEAN_ANOMALY":309.3229,"EPHEMERIS_TYPE":0,"CLASSIFICATION_TYPE":"U","NORAD_CAT_ID":23267,"ELEMENT_SET_NO":999,"REV_AT_EPOCH":11566,"BSTAR":0,"MEAN_MOTION_DOT":-1.21e-6,"MEAN_MOTION_DDOT":0},{"OBJECT_NAME":"SL-12 R/B(2)","OBJECT_ID":"1994-060D","EPOCH":"2026-04-26T09:45:38.434176","MEAN_MOTION":1.00092306,"ECCENTRICITY":0.0006514,"INCLINATION":14.274,"RA_OF_ASC_NODE":350.4768,"ARG_OF_PERICENTER":149.6681,"MEAN_ANOMALY":33.2915,"EPHEMERIS_TYPE":0,"CLASSIFICATION_TYPE":"U","NORAD_CAT_ID":23270,"ELEMENT_SET_NO":999,"REV_AT_EPOCH":11502,"BSTAR":0,"MEAN_MOTION_DOT":-7.5e-7,"MEAN_MOTION_DDOT":0},{"OBJECT_NAME":"THAICOM 2","OBJECT_ID":"1994-065B","EPOCH":"2026-04-26T11:13:44.010336","MEAN_MOTION":0.99588946,"ECCENTRICITY":0.0001892,"INCLINATION":11.382,"RA_OF_ASC_NODE":39.0104,"ARG_OF_PERICENTER":240.8766,"MEAN_ANOMALY":323.5682,"EPHEMERIS_TYPE":0,"CLASSIFICATION_TYPE":"U","NORAD_CAT_ID":23314,"ELEMENT_SET_NO":999,"REV_AT_EPOCH":4585,"BSTAR":0,"MEAN_MOTION_DOT":8.7e-7,"MEAN_MOTION_DDOT":0},{"OBJECT_NAME":"EXPRESS 1","OBJECT_ID":"1994-067A","EPOCH":"2026-04-25T20:35:08.672928","MEAN_MOTION":0.99826865,"ECCENTRICITY":0.00057724,"INCLINATION":14.5052,"RA_OF_ASC_NODE":2.4105,"ARG_OF_PERICENTER":268.6039,"MEAN_ANOMALY":279.553,"EPHEMERIS_TYPE":0,"CLASSIFICATION_TYPE":"U","NORAD_CAT_ID":23319,"ELEMENT_SET_NO":999,"REV_AT_EPOCH":11505,"BSTAR":0,"MEAN_MOTION_DOT":6.0e-7,"MEAN_MOTION_DDOT":0},{"OBJECT_NAME":"SL-12 R/B(2)","OBJECT_ID":"1994-067D","EPOCH":"2026-04-26T11:40:35.887008","MEAN_MOTION":1.00221932,"ECCENTRICITY":0.0006156,"INCLINATION":13.8956,"RA_OF_ASC_NODE":345.2674,"ARG_OF_PERICENTER":139.8057,"MEAN_ANOMALY":227.2619,"EPHEMERIS_TYPE":0,"CLASSIFICATION_TYPE":"U","NORAD_CAT_ID":23322,"ELEMENT_SET_NO":999,"REV_AT_EPOCH":11549,"BSTAR":0,"MEAN_MOTION_DOT":-2.87e-6,"MEAN_MOTION_DDOT":0},{"OBJECT_NAME":"ELEKTRO (GOMS 1)","OBJECT_ID":"1994-069A","EPOCH":"2026-04-26T03:40:03.680832","MEAN_MOTION":1.002886,"ECCENTRICITY":0.0008073,"INCLINATION":14.4963,"RA_OF_ASC_NODE":349.6965,"ARG_OF_PERICENTER":270.0209,"MEAN_ANOMALY":86.4444,"EPHEMERIS_TYPE":0,"CLASSIFICATION_TYPE":"U","NORAD_CAT_ID":23327,"ELEMENT_SET_NO":999,"REV_AT_EPOCH":11534,"BSTAR":0,"MEAN_MOTION_DOT":-1.46e-6,"MEAN_MOTION_DDOT":0},{"OBJECT_NAME":"SL-12 R/B(2)","OBJECT_ID":"1994-069D","EPOCH":"2026-04-26T12:28:56.231328","MEAN_MOTION":1.00096232,"ECCENTRICITY":0.0020636,"INCLINATION":14.4952,"RA_OF_ASC_NODE":349.7388,"ARG_OF_PERICENTER":151.4029,"MEAN_ANOMALY":156.1709,"EPHEMERIS_TYPE":0,"CLASSIFICATION_TYPE":"U","NORAD_CAT_ID":23330,"ELEMENT_SET_NO":999,"REV_AT_EPOCH":11513,"BSTAR":0,"MEAN_MOTION_DOT":-1.05e-6,"MEAN_MOTION_DDOT":0},{"OBJECT_NAME":"DFH 3-1","OBJECT_ID":"1994-080A","EPOCH":"2026-04-26T12:28:56.213184","MEAN_MOTION":1.00968654,"ECCENTRICITY":0.0097172,"INCLINATION":13.7081,"RA_OF_ASC_NODE":344.9458,"ARG_OF_PERICENTER":21.1068,"MEAN_ANOMALY":294.0194,"EPHEMERIS_TYPE":0,"CLASSIFICATION_TYPE":"U","NORAD_CAT_ID":23415,"ELEMENT_SET_NO":999,"REV_AT_EPOCH":13514,"BSTAR":0,"MEAN_MOTION_DOT":-2.31e-6,"MEAN_MOTION_DDOT":0},{"OBJECT_NAME":"LUCH","OBJECT_ID":"1994-082A","EPOCH":"2026-04-24T14:49:13.987200","MEAN_MOTION":1.0016814,"ECCENTRICITY":0.00042142,"INCLINATION":14.7509,"RA_OF_ASC_NODE":355.0176,"ARG_OF_PERICENTER":218.7466,"MEAN_ANOMALY":141.1861,"EPHEMERIS_TYPE":0,"CLASSIFICATION_TYPE":"U","NORAD_CAT_ID":23426,"ELEMENT_SET_NO":999,"REV_AT_EPOCH":11472,"BSTAR":0,"MEAN_MOTION_DOT":-2.53e-6,"MEAN_MOTION_DDOT":0},{"OBJECT_NAME":"SL-12 R/B(2)","OBJECT_ID":"1994-082D","EPOCH":"2026-04-26T10:52:39.806400","MEAN_MOTION":1.00788266,"ECCENTRICITY":0.0026774,"INCLINATION":14.5801,"RA_OF_ASC_NODE":354.4883,"ARG_OF_PERICENTER":137.833,"MEAN_ANOMALY":39.0014,"EPHEMERIS_TYPE":0,"CLASSIFICATION_TYPE":"U","NORAD_CAT_ID":23429,"ELEMENT_SET_NO":999,"REV_AT_EPOCH":11537,"BSTAR":0,"MEAN_MOTION_DOT":-1.0e-6,"MEAN_MOTION_DDOT":0}]
